DUBAISAT-1              
1 35682U 09041B   26165.10445821  .00000676  00000+0  10765-3 0  9993
2 35682  98.0048 298.3961 0011719  82.5087 277.7453 14.75118719904644
OCEANSAT-2              
1 35931U 09051A   26165.12565751 -.00000066  00000+0 -19443-4 0  9996
2 35931  98.2324 152.2824 0014975 245.2421 114.7187 13.99664797878903
WORLDVIEW-2 (WV-2)      
1 35946U 09055A   26165.17159689  .00000110  00000+0  50902-4 0  9993
2 35946  98.4736 238.6627 0003535 218.4772 141.6164 14.37898631875213
SMOS                    
1 36036U 09059A   26165.13172051  .00000228  00000+0  86666-4 0  9998
2 36036  98.4424 352.5114 0001323  89.4752 270.6587 14.39771151873019
YAOGAN-7                
1 36110U 09069A   26165.17770953  .00000454  00000+0  69855-4 0  9993
2 36110  98.0076  51.0632 0025723  51.0222 309.3274 14.78007179889187
TANDEM-X                
1 36605U 10030A   26164.37136316  .00000556  00000+0  29649-4 0  9992
2 36605  97.4453 172.1345 0001853  92.9116 267.2331 15.19145408886062
CARTOSAT-2B             
1 36795U 10035A   26165.15920027  .00000503  00000+0  75713-4 0  9999
2 36795  97.9959 215.7281 0010972 193.8075 166.2838 14.78657043859403
YAOGAN-10               
1 36834U 10038A   26165.25294074  .00002074  00000+0  24743-3 0  9994
2 36834  97.8979 188.6806 0001732  87.0301 337.2736 14.85343492856771
COSMO-SKYMED 4          
1 37216U 10060A   26165.20324536  .00000667  00000+0  90363-4 0  9994
2 37216  97.8882 348.8465 0001407  82.3528 277.7845 14.82151615844124
RESOURCESAT-2           
1 37387U 11015A   26165.20332043  .00000071  00000+0  52516-4 0  9993
2 37387  98.7644 232.6657 0010153 265.0988  94.9030 14.21605818785750
HAIYANG-2A              
1 37781U 11043A   26165.12652697  .00000012  00000+0  58921-4 0  9994
2 37781  99.3390 167.8700 0006202  96.2909 263.8947 13.74459008746237
RASAT                   
1 37791U 11044D   26165.18354976  .00000597  00000+0  11210-3 0  9998
2 37791  98.0577 256.6259 0019953 198.4999 248.5070 14.68164222792747
SRMSAT                  
1 37841U 11058D   26165.10596874  .00000361  00000+0  51961-4 0  9993
2 37841  19.9719  78.1172 0011859 169.7435 229.6321 14.11574986757387
PLEIADES 1A             
1 38012U 11076F   26165.18013369  .00000170  00000+0  46345-4 0  9993
2 38012  98.1982 240.3229 0001617  98.2942 346.2051 14.58568908771554
ZIYUAN 1-02C (ZY 1-02C) 
1 38038U 11079A   26165.22910900  .00000354  00000+0  13066-3 0  9993
2 38038  98.4079 232.5993 0005655 326.9147 125.7202 14.38212530758780
ARIRANG-3 (KOMPSAT-3)   
1 38338U 12025B   26165.15862294  .00000391  00000+0  86789-4 0  9996
2 38338  98.1176 122.6708 0006576 117.0277 243.1597 14.62203818750901
EXACTVIEW-1 (ADS-1B)    
1 38709U 12039C   26165.08109969  .00000083  00000+0  55126-4 0  9997
2 38709  98.9774 282.4012 0010995 175.1331 184.9956 14.24983686722269
SPOT 6                  
1 38755U 12047A   26165.17937213  .00000195  00000+0  51864-4 0  9997
2 38755  98.2126 232.5232 0001477  93.5369 266.6000 14.58561173732611
PLEIADES 1B             
1 39019U 12068A   26165.19828463  .00000243  00000+0  62128-4 0  9991
2 39019  98.1952 240.2908 0001643  94.3945 265.7442 14.58558832720414
GOKTURK 2               
1 39030U 12073A   26165.16483264  .00000214  00000+0  38385-4 0  9999
2 39030  97.6820   2.7483 0001707  57.5609 302.5766 14.75539018724061
LANDSAT 8               
1 39084U 13008A   26165.20924916  .00000279  00000+0  72141-4 0  9995
2 39084  98.2302 235.3797 0001366  93.5627 266.5727 14.57092676697468
SARAL                   
1 39086U 13009A   26165.17785377  .00000084  00000+0  46867-4 0  9990
2 39086  98.5556 351.7832 0000850 327.3427  32.7705 14.32855260695174
GAOFEN-1                
1 39150U 13018A   26165.21678341  .00000337  00000+0  55632-4 0  9990
2 39150  97.9101 237.3447 0015717 276.8174  83.1247 14.76532639707806
VNREDSAT 1              
1 39160U 13021B   26165.15180883  .00000566  00000+0  11456-3 0  9996
2 39160  97.9086 218.6845 0001675  90.1606 269.9790 14.64854286699841
ARIRANG-5 (KOMPSAT-5)   
1 39227U 13042A   26165.17317611  .00001250  00000+0  93648-4 0  9991
2 39227  97.6208 351.9166 0005132 127.5507 232.6186 15.04483719703400
SKYSAT-A                
1 39418U 13066C   26165.08275167  .00003310  00000+0  19046-3 0  9996
2 39418  97.3817 214.5787 0020375 328.8649  31.1373 15.12960772688014
DUBAISAT-2              
1 39419U 13066D   26165.22164021  .00003185  00000+0  19866-3 0  9999
2 39419  97.4557 155.4429 0012693  50.3399 309.8948 15.10163512685943
GPM-CORE                
1 39574U 14009C   26165.16622534  .00011748  00000+0  25634-3 0  9994
2 39574  64.9721 318.2437 0011975 250.4701 109.5146 15.44511580697348
SENTINEL-1A             
1 39634U 14016A   26165.21321079 -.00000479  00000+0 -91822-4 0  9999
2 39634  98.1775 172.7892 0001415  82.5971 277.5389 14.59198047649584
KAZEOSAT 1              
1 39731U 14024A   26165.17692333  .00000081  00000+0  37533-4 0  9991
2 39731  98.3211 237.6986 0001378  75.0415 285.0927 14.42078684638128
ALOS-2                  
1 39766U 14029A   26165.23095280  .00001526  00000+0  21115-3 0  9992
2 39766  97.9219 262.4362 0001603  92.1946 267.9450 14.79479426651149
