OBJECT_NAME,OBJECT_ID,EPOCH,MEAN_MOTION,ECCENTRICITY,INCLINATION,RA_OF_ASC_NODE,ARG_OF_PERICENTER,MEAN_ANOMALY,EPHEMERIS_TYPE,CLASSIFICATION_TYPE,NORAD_CAT_ID,ELEMENT_SET_NO,REV_AT_EPOCH,BSTAR,MEAN_MOTION_DOT,MEAN_MOTION_DDOT
DUBAISAT-1,2009-041B,2026-06-14T02:30:25.189344,14.75118719,.0011719,98.0048,298.3961,82.5087,277.7453,0,U,35682,999,90464,.10765E-3,.676E-5,0
OCEANSAT-2,2009-051A,2026-06-14T03:00:56.808864,13.99664797,.0014975,98.2324,152.2824,245.2421,114.7187,0,U,35931,999,87890,-.19443E-4,-.66E-6,0
WORLDVIEW-2 (WV-2),2009-055A,2026-06-14T04:07:05.971296,14.37898631,.0003535,98.4736,238.6627,218.4772,141.6164,0,U,35946,999,87521,.50902E-4,.11E-5,0
SMOS,2009-059A,2026-06-14T03:09:40.652064,14.39771151,.0001323,98.4424,352.5114,89.4752,270.6587,0,U,36036,999,87301,.86666E-4,.228E-5,0
YAOGAN-7,2009-069A,2026-06-14T04:15:54.103392,14.78007179,.0025723,98.0076,51.0632,51.0222,309.3274,0,U,36110,999,88918,.69855E-4,.454E-5,0
TANDEM-X,2010-030A,2026-06-13T08:54:45.777024,15.19145408,.0001853,97.4453,172.1345,92.9116,267.2331,0,U,36605,999,88606,.29649083E-4,.556E-5,0
CARTOSAT-2B,2010-035A,2026-06-14T03:49:14.903328,14.78657043,.0010972,97.9959,215.7281,193.8075,166.2838,0,U,36795,999,85940,.75713E-4,.503E-5,0
YAOGAN-10,2010-038A,2026-06-14T06:04:14.079936,14.85343492,.0001732,97.8979,188.6806,87.0301,337.2736,0,U,36834,999,85677,.24743E-3,.2074E-4,0
COSMO-SKYMED 4,2010-060A,2026-06-14T04:52:40.399104,14.82151615,.0001407,97.8882,348.8465,82.3528,277.7845,0,U,37216,999,84412,.90363E-4,.667E-5,0
RESOURCESAT-2,2011-015A,2026-06-14T04:52:46.885152,14.21605818,.0010153,98.7644,232.6657,265.0988,94.9030,0,U,37387,999,78575,.52516E-4,.71E-6,0
HAIYANG-2A,2011-043A,2026-06-14T03:02:11.930208,13.74459008,.0006202,99.3390,167.8700,96.2909,263.8947,0,U,37781,999,74623,.58921E-4,.12E-6,0
RASAT,2011-044D,2026-06-14T04:24:18.699264,14.68164222,.0019953,98.0577,256.6259,198.4999,248.5070,0,U,37791,999,79274,.1121E-3,.597E-5,0
SRMSAT,2011-058D,2026-06-14T02:32:35.699136,14.11574986,.0011859,19.9719,78.1172,169.7435,229.6321,0,U,37841,999,75738,.51961E-4,.361E-5,0
PLEIADES 1A,2011-076F,2026-06-14T04:19:23.550816,14.58568908,.0001617,98.1982,240.3229,98.2942,346.2051,0,U,38012,999,77155,.46345E-4,.17E-5,0
ZIYUAN 1-02C (ZY 1-02C),2011-079A,2026-06-14T05:29:55.017600,14.38212530,.0005655,98.4079,232.5993,326.9147,125.7202,0,U,38038,999,75878,.13066E-3,.354E-5,0
ARIRANG-3 (KOMPSAT-3),2012-025B,2026-06-14T03:48:25.022016,14.62203818,.0006576,98.1176,122.6708,117.0277,243.1597,0,U,38338,999,75090,.86789E-4,.391E-5,0
EXACTVIEW-1 (ADS-1B),2012-039C,2026-06-14T01:56:47.013216,14.24983686,.0010995,98.9774,282.4012,175.1331,184.9956,0,U,38709,999,72226,.55126E-4,.83E-6,0
SPOT 6,2012-047A,2026-06-14T04:18:17.752032,14.58561173,.0001477,98.2126,232.5232,93.5369,266.6000,0,U,38755,999,73261,.51864E-4,.195E-5,0
PLEIADES 1B,2012-068A,2026-06-14T04:45:31.792032,14.58558832,.0001643,98.1952,240.2908,94.3945,265.7442,0,U,39019,999,72041,.62128E-4,.243E-5,0
GOKTURK 2,2012-073A,2026-06-14T03:57:21.540096,14.75539018,.0001707,97.6820,2.7483,57.5609,302.5766,0,U,39030,999,72406,.38385E-4,.214E-5,0
LANDSAT 8,2013-008A,2026-06-14T05:01:19.127424,14.57092676,.0001366,98.2302,235.3797,93.5627,266.5727,0,U,39084,999,69746,.72141E-4,.279E-5,0
SARAL,2013-009A,2026-06-14T04:16:06.565728,14.32855260,.000085,98.5556,351.7832,327.3427,32.7705,0,U,39086,999,69517,.46867E-4,.84E-6,0
GAOFEN-1,2013-018A,2026-06-14T05:12:10.086624,14.76532639,.0015717,97.9101,237.3447,276.8174,83.1247,0,U,39150,999,70780,.55632E-4,.337E-5,0
VNREDSAT 1,2013-021B,2026-06-14T03:38:36.282912,14.64854286,.0001675,97.9086,218.6845,90.1606,269.9790,0,U,39160,999,69984,.11456E-3,.566E-5,0
ARIRANG-5 (KOMPSAT-5),2013-042A,2026-06-14T04:09:22.415904,15.04483719,.0005132,97.6208,351.9166,127.5507,232.6186,0,U,39227,999,70340,.93648E-4,.125E-4,0
SKYSAT-A,2013-066C,2026-06-14T01:59:09.744288,15.12960772,.0020375,97.3817,214.5787,328.8649,31.1373,0,U,39418,999,68801,.19046E-3,.331E-4,0
DUBAISAT-2,2013-066D,2026-06-14T05:19:09.714144,15.10163512,.0012693,97.4557,155.4429,50.3399,309.8948,0,U,39419,999,68594,.19866E-3,.3185E-4,0
GPM-CORE,2014-009C,2026-06-14T03:59:21.869376,15.44511580,.0011975,64.9721,318.2437,250.4701,109.5146,0,U,39574,999,69734,.25634E-3,.11748E-3,0
SENTINEL-1A,2014-016A,2026-06-14T05:07:01.412256,14.59198047,.0001415,98.1775,172.7892,82.5971,277.5389,0,U,39634,999,64958,-.91822E-4,-.479E-5,0
KAZEOSAT 1,2014-024A,2026-06-14T04:14:46.175712,14.42078684,.0001378,98.3211,237.6986,75.0415,285.0927,0,U,39731,999,63812,.37533E-4,.81E-6,0
ALOS-2,2014-029A,2026-06-14T05:32:34.321920,14.79479426,.0001603,97.9219,262.4362,92.1946,267.9450,0,U,39766,999,65114,.21115E-3,.1526E-4,0
